FLOCK 4Q-36             
1 58274U 23174U   26066.02915685  .00031348  00000+0  54002-3 0  9991
2 58274  97.3889 155.2275 0007720 154.7641 205.3989 15.50980825129969
FLOCK 4Q-12             
1 58275U 23174V   26066.16768141  .00089662  00000+0  15013-2 0  9990
2 58275  97.3883 155.2540 0005793 162.2811 197.8644 15.51536081130002
FLOCK 4Q-28             
1 58280U 23174AA  26066.17628683  .00035020  00000+0  64986-3 0  9996
2 58280  97.3904 154.4965 0007032 160.7088 199.4430 15.48847227129924
FLOCK 4Q-27             
1 58282U 23174AC  26066.17210929  .00035904  00000+0  66652-3 0  9991
2 58282  97.3856 154.0346 0006661 156.5703 203.5853 15.48833510129932
FLOCK 4Q-26             
1 58284U 23174AE  26065.18143280  .00036456  00000+0  63650-3 0  9996
2 58284  97.3907 154.4443 0007229 161.6703 198.4811 15.50575935129833
FLOCK 4Q-31             
1 58285U 23174AF  26066.17987358  .00042835  00000+0  75752-3 0  9993
2 58285  97.3948 155.1111 0007757 160.4233 199.7318 15.50174224129944
FLOCK 4Q-30             
1 58286U 23174AG  26066.16819826  .00042516  00000+0  74624-3 0  9990
2 58286  97.3947 155.2801 0007542 157.9635 202.1942 15.50391248129950
PELICAN-1               
1 58296U 23174AS  26065.24450947  .00081793  00000+0  88135-3 0  9996
2 58296  97.4001 159.8342 0009893 249.0472 110.9728 15.63371431130020
FLOCK 4Q-25             
1 58303U 23174AZ  26066.15174707  .00053757  00000+0  76290-3 0  9991
2 58303  97.3863 156.1273 0005388 143.4156 216.7468 15.56253564130077
FLOCK 4Q-29             
1 58304U 23174BA  26066.19560154  .00038928  00000+0  70968-3 0  9990
2 58304  97.3936 154.9055 0007804 148.9746 211.1968 15.49327206129937
FLOCK 4Q-22             
1 58306U 23174BC  26066.16012610  .00042844  00000+0  71247-3 0  9991
2 58306  97.3850 155.0446 0006606 153.0027 207.1570 15.51920260130004
FLOCK 4Q-23             
1 58307U 23174BD  26066.18653577  .00053730  00000+0  79601-3 0  9995
2 58307  97.3959 156.6191 0006953 148.7646 211.4022 15.55070275130042
FLOCK 4Q-33             
1 58308U 23174BE  26066.14495605  .00041843  00000+0  71861-3 0  9990
2 58308  97.3885 154.9676 0007491 142.5928 217.5846 15.51011062129980
FLOCK 4Q-35             
1 58309U 23174BF  26066.19469235  .00042193  00000+0  75105-3 0  9990
2 58309  97.3898 155.1864 0008199 155.5396 204.6246 15.49988103129972
FLOCK 4Q-34             
1 58316U 23174BN  26066.19793337  .00055476  00000+0  81532-3 0  9990
2 58316  97.3860 156.0321 0006742 150.7294 209.4339 15.55283694130050
FLOCK 4Q-7              
1 58318U 23174BQ  26066.16455029  .00039883  00000+0  73498-3 0  9998
2 58318  97.3934 154.6836 0007954 147.5015 212.6727 15.49011782129921
