[{"OBJECT_NAME":"FLOCK 4Q-36","OBJECT_ID":"2023-174U","EPOCH":"2026-03-07T00:41:59.151840","MEAN_MOTION":15.50980825,"ECCENTRICITY":0.000772,"INCLINATION":97.3889,"RA_OF_ASC_NODE":155.2275,"ARG_OF_PERICENTER":154.7641,"MEAN_ANOMALY":205.3989,"EPHEMERIS_TYPE":0,"CLASSIFICATION_TYPE":"U","NORAD_CAT_ID":58274,"ELEMENT_SET_NO":999,"REV_AT_EPOCH":12996,"BSTAR":0.00054002,"MEAN_MOTION_DOT":0.00031348,"MEAN_MOTION_DDOT":0},{"OBJECT_NAME":"FLOCK 4Q-12","OBJECT_ID":"2023-174V","EPOCH":"2026-03-07T04:01:27.673824","MEAN_MOTION":15.51536081,"ECCENTRICITY":0.0005793,"INCLINATION":97.3883,"RA_OF_ASC_NODE":155.254,"ARG_OF_PERICENTER":162.2811,"MEAN_ANOMALY":197.8644,"EPHEMERIS_TYPE":0,"CLASSIFICATION_TYPE":"U","NORAD_CAT_ID":58275,"ELEMENT_SET_NO":999,"REV_AT_EPOCH":13000,"BSTAR":0.0015013,"MEAN_MOTION_DOT":0.00089662,"MEAN_MOTION_DDOT":0},{"OBJECT_NAME":"FLOCK 4Q-28","OBJECT_ID":"2023-174AA","EPOCH":"2026-03-07T04:13:51.182112","MEAN_MOTION":15.48847227,"ECCENTRICITY":0.0007032,"INCLINATION":97.3904,"RA_OF_ASC_NODE":154.4965,"ARG_OF_PERICENTER":160.7088,"MEAN_ANOMALY":199.443,"EPHEMERIS_TYPE":0,"CLASSIFICATION_TYPE":"U","NORAD_CAT_ID":58280,"ELEMENT_SET_NO":999,"REV_AT_EPOCH":12992,"BSTAR":0.00064986,"MEAN_MOTION_DOT":0.0003502,"MEAN_MOTION_DDOT":0},{"OBJECT_NAME":"FLOCK 4Q-27","OBJECT_ID":"2023-174AC","EPOCH":"2026-03-07T04:07:50.242656","MEAN_MOTION":15.4883351,"ECCENTRICITY":0.0006661,"INCLINATION":97.3856,"RA_OF_ASC_NODE":154.0346,"ARG_OF_PERICENTER":156.5703,"MEAN_ANOMALY":203.5853,"EPHEMERIS_TYPE":0,"CLASSIFICATION_TYPE":"U","NORAD_CAT_ID":58282,"ELEMENT_SET_NO":999,"REV_AT_EPOCH":12993,"BSTAR":0.00066652,"MEAN_MOTION_DOT":0.00035904,"MEAN_MOTION_DDOT":0},{"OBJECT_NAME":"FLOCK 4Q-26","OBJECT_ID":"2023-174AE","EPOCH":"2026-03-06T04:21:15.793920","MEAN_MOTION":15.50575935,"ECCENTRICITY":0.0007229,"INCLINATION":97.3907,"RA_OF_ASC_NODE":154.4443,"ARG_OF_PERICENTER":161.6703,"MEAN_ANOMALY":198.4811,"EPHEMERIS_TYPE":0,"CLASSIFICATION_TYPE":"U","NORAD_CAT_ID":58284,"ELEMENT_SET_NO":999,"REV_AT_EPOCH":12983,"BSTAR":0.00063649715,"MEAN_MOTION_DOT":0.00036456,"MEAN_MOTION_DDOT":0},{"OBJECT_NAME":"FLOCK 4Q-31","OBJECT_ID":"2023-174AF","EPOCH":"2026-03-07T04:19:01.077312","MEAN_MOTION":15.50174224,"ECCENTRICITY":0.0007757,"INCLINATION":97.3948,"RA_OF_ASC_NODE":155.1111,"ARG_OF_PERICENTER":160.4233,"MEAN_ANOMALY":199.7318,"EPHEMERIS_TYPE":0,"CLASSIFICATION_TYPE":"U","NORAD_CAT_ID":58285,"ELEMENT_SET_NO":999,"REV_AT_EPOCH":12994,"BSTAR":0.00075752,"MEAN_MOTION_DOT":0.00042835,"MEAN_MOTION_DDOT":0},{"OBJECT_NAME":"FLOCK 4Q-30","OBJECT_ID":"2023-174AG","EPOCH":"2026-03-07T04:02:12.329664","MEAN_MOTION":15.50391248,"ECCENTRICITY":0.0007542,"INCLINATION":97.3947,"RA_OF_ASC_NODE":155.2801,"ARG_OF_PERICENTER":157.9635,"MEAN_ANOMALY":202.1942,"EPHEMERIS_TYPE":0,"CLASSIFICATION_TYPE":"U","NORAD_CAT_ID":58286,"ELEMENT_SET_NO":999,"REV_AT_EPOCH":12995,"BSTAR":0.00074624,"MEAN_MOTION_DOT":0.00042516,"MEAN_MOTION_DDOT":0},{"OBJECT_NAME":"PELICAN-1","OBJECT_ID":"2023-174AS","EPOCH":"2026-03-06T05:52:05.618208","MEAN_MOTION":15.63371431,"ECCENTRICITY":0.00098939,"INCLINATION":97.4001,"RA_OF_ASC_NODE":159.8342,"ARG_OF_PERICENTER":249.0472,"MEAN_ANOMALY":110.9728,"EPHEMERIS_TYPE":0,"CLASSIFICATION_TYPE":"U","NORAD_CAT_ID":58296,"ELEMENT_SET_NO":999,"REV_AT_EPOCH":13002,"BSTAR":0.00088135357,"MEAN_MOTION_DOT":0.00081793,"MEAN_MOTION_DDOT":0},{"OBJECT_NAME":"FLOCK 4Q-25","OBJECT_ID":"2023-174AZ","EPOCH":"2026-03-07T03:38:30.946848","MEAN_MOTION":15.56253564,"ECCENTRICITY":0.0005388,"INCLINATION":97.3863,"RA_OF_ASC_NODE":156.1273,"ARG_OF_PERICENTER":143.4156,"MEAN_ANOMALY":216.7468,"EPHEMERIS_TYPE":0,"CLASSIFICATION_TYPE":"U","NORAD_CAT_ID":58303,"ELEMENT_SET_NO":999,"REV_AT_EPOCH":13007,"BSTAR":0.0007629,"MEAN_MOTION_DOT":0.00053757,"MEAN_MOTION_DDOT":0},{"OBJECT_NAME":"FLOCK 4Q-29","OBJECT_ID":"2023-174BA","EPOCH":"2026-03-07T04:41:39.973056","MEAN_MOTION":15.49327206,"ECCENTRICITY":0.0007804,"INCLINATION":97.3936,"RA_OF_ASC_NODE":154.9055,"ARG_OF_PERICENTER":148.9746,"MEAN_ANOMALY":211.1968,"EPHEMERIS_TYPE":0,"CLASSIFICATION_TYPE":"U","NORAD_CAT_ID":58304,"ELEMENT_SET_NO":999,"REV_AT_EPOCH":12993,"BSTAR":0.00070968,"MEAN_MOTION_DOT":0.00038928,"MEAN_MOTION_DDOT":0},{"OBJECT_NAME":"FLOCK 4Q-22","OBJECT_ID":"2023-174BC","EPOCH":"2026-03-07T03:50:34.895040","MEAN_MOTION":15.5192026,"ECCENTRICITY":0.0006606,"INCLINATION":97.385,"RA_OF_ASC_NODE":155.0446,"ARG_OF_PERICENTER":153.0027,"MEAN_ANOMALY":207.157,"EPHEMERIS_TYPE":0,"CLASSIFICATION_TYPE":"U","NORAD_CAT_ID":58306,"ELEMENT_SET_NO":999,"REV_AT_EPOCH":13000,"BSTAR":0.00071247,"MEAN_MOTION_DOT":0.00042844,"MEAN_MOTION_DDOT":0},{"OBJECT_NAME":"FLOCK 4Q-23","OBJECT_ID":"2023-174BD","EPOCH":"2026-03-07T04:28:36.690528","MEAN_MOTION":15.55070275,"ECCENTRICITY":0.0006953,"INCLINATION":97.3959,"RA_OF_ASC_NODE":156.6191,"ARG_OF_PERICENTER":148.7646,"MEAN_ANOMALY":211.4022,"EPHEMERIS_TYPE":0,"CLASSIFICATION_TYPE":"U","NORAD_CAT_ID":58307,"ELEMENT_SET_NO":999,"REV_AT_EPOCH":13004,"BSTAR":0.00079601,"MEAN_MOTION_DOT":0.0005373,"MEAN_MOTION_DDOT":0},{"OBJECT_NAME":"FLOCK 4Q-33","OBJECT_ID":"2023-174BE","EPOCH":"2026-03-07T03:28:44.202720","MEAN_MOTION":15.51011062,"ECCENTRICITY":0.0007491,"INCLINATION":97.3885,"RA_OF_ASC_NODE":154.9676,"ARG_OF_PERICENTER":142.5928,"MEAN_ANOMALY":217.5846,"EPHEMERIS_TYPE":0,"CLASSIFICATION_TYPE":"U","NORAD_CAT_ID":58308,"ELEMENT_SET_NO":999,"REV_AT_EPOCH":12998,"BSTAR":0.00071861,"MEAN_MOTION_DOT":0.00041843,"MEAN_MOTION_DDOT":0},{"OBJECT_NAME":"FLOCK 4Q-35","OBJECT_ID":"2023-174BF","EPOCH":"2026-03-07T04:40:21.419040","MEAN_MOTION":15.49988103,"ECCENTRICITY":0.0008199,"INCLINATION":97.3898,"RA_OF_ASC_NODE":155.1864,"ARG_OF_PERICENTER":155.5396,"MEAN_ANOMALY":204.6246,"EPHEMERIS_TYPE":0,"CLASSIFICATION_TYPE":"U","NORAD_CAT_ID":58309,"ELEMENT_SET_NO":999,"REV_AT_EPOCH":12997,"BSTAR":0.00075105,"MEAN_MOTION_DOT":0.00042193,"MEAN_MOTION_DDOT":0},{"OBJECT_NAME":"FLOCK 4Q-34","OBJECT_ID":"2023-174BN","EPOCH":"2026-03-07T04:45:01.443168","MEAN_MOTION":15.55283694,"ECCENTRICITY":0.0006742,"INCLINATION":97.386,"RA_OF_ASC_NODE":156.0321,"ARG_OF_PERICENTER":150.7294,"MEAN_ANOMALY":209.4339,"EPHEMERIS_TYPE":0,"CLASSIFICATION_TYPE":"U","NORAD_CAT_ID":58316,"ELEMENT_SET_NO":999,"REV_AT_EPOCH":13005,"BSTAR":0.00081532,"MEAN_MOTION_DOT":0.00055476,"MEAN_MOTION_DDOT":0},{"OBJECT_NAME":"FLOCK 4Q-7","OBJECT_ID":"2023-174BQ","EPOCH":"2026-03-07T03:56:57.145056","MEAN_MOTION":15.49011782,"ECCENTRICITY":0.0007954,"INCLINATION":97.3934,"RA_OF_ASC_NODE":154.6836,"ARG_OF_PERICENTER":147.5015,"MEAN_ANOMALY":212.6727,"EPHEMERIS_TYPE":0,"CLASSIFICATION_TYPE":"U","NORAD_CAT_ID":58318,"ELEMENT_SET_NO":999,"REV_AT_EPOCH":12992,"BSTAR":0.00073498,"MEAN_MOTION_DOT":0.00039883,"MEAN_MOTION_DDOT":0}]
